{
"type": "FeatureCollection",
"name": "Douars V2",
"crs": { "type": "name", "properties": { "name": "urn:ogc:def:crs:EPSG::26191" } },
"features": [
{"type":"Feature","properties":{"id":1,"PROVINCE":"SIDI BENNOUR","CERCLE":"OULED AMRANE","COMMUNE":"TAMDA","DOUAR":"EL KHADIR","ETAT":"ACHEVEE","SUP EN HA":19.44,"NB HABITAN":486,"CENTROID_X":219709.17,"CENTROID_Y":207396.15,"VALIDATION":"2025-07-10","OBSERVATIO":"N/A","PROVINCE_A":"سيدي بنور","CERCLE_AR":"أولاد عمران","COMMUNE_AR":"تامدة","DOUAR_AR":"الخدير","REF":"DD/SDB/TAM/1/2025","LISTE ORMV":"OK","VERSION":"V2"},"geometry":{"type":"MultiPolygon","coordinates":[[[[219803.895349076861748,207614.792784987395862],[219892.78984234581003,207578.378173286851961],[219946.34074190541287,207531.253381674381671],[219967.761101729265647,207476.631464123580372],[219943.127687931846594,207357.74846710122074],[219906.713076231302693,207323.475891383073758],[219888.505770381045295,207288.132297673728317],[219908.870299322967185,207247.997942026879173],[219897.247571839252487,207219.328547566983616],[219720.591775490785949,207147.578460776712745],[219665.285633652412798,207119.422606749925762],[219583.834770217741607,207118.417040534666739],[219549.645518899458693,207253.162913377251243],[219507.411737859249115,207246.123949870525394],[219502.383906783041311,207318.524717368040001],[219449.088897375157103,207332.602644381433493],[219474.228052756225225,207452.265023995365482],[219463.91556665522512,207483.458056386822136],[219488.652201416174648,207527.222871733130887],[219747.435457376996055,207687.059588650095975],[219803.895349076861748,207614.792784987395862]]]]}},
{"type":"Feature","properties":{"id":2,"PROVINCE":"SIDI BENNOUR","CERCLE":"OULED AMRANE","COMMUNE":"TAMDA","DOUAR":"OULED ALI","ETAT":"ANNULE","SUP EN HA":14.48,"NB HABITAN":362,"CENTROID_X":215648.85,"CENTROID_Y":205904.29,"VALIDATION":"2025-07-10","OBSERVATIO":"TOUCHE PAR LA ZONE AGRICOLE REMEMBREE","PROVINCE_A":"سيدي بنور","CERCLE_AR":"أولاد عمران","COMMUNE_AR":"تامدة","DOUAR_AR":"أولاد علي","REF":"N/A","LISTE ORMV":null,"VERSION":"V2"},"geometry":{"type":"MultiPolygon","coordinates":[[[[215570.080452494468773,206057.377958411438158],[215639.484093915991252,206052.751048983336659],[215650.58867654344067,206134.184654917917214],[215813.45588841260178,206117.52778097675764],[215796.799014471442206,206059.228722182684578],[215838.441199324355694,206064.781013496423839],[215846.769636294920929,206033.318029385322006],[215837.515817438717932,206024.064210529119009],[215856.948837036732584,205896.361510313523468],[215960.591608226211974,205876.003108829900157],[215944.860116170661058,205810.300994950870518],[215836.590435553109273,205836.211687748233089],[215820.858943497558357,205806.599467408377677],[215786.619813729601447,205814.927904378972016],[215777.365994873398449,205796.420266666566022],[215741.276101334224222,205802.897939865884837],[215724.619227393064648,205727.9420071306522],[215698.708534595702076,205736.27044410124654],[215687.603951968252659,205808.450231179624097],[215672.797841798310401,205744.598881071811775],[215643.185621458484093,205742.748117300594458],[215629.607745075802086,205667.708284323802218],[215573.215905575867509,205678.523157652554801],[215537.681321781390579,205703.242868118279148],[215499.829265130771091,205748.819834289432038],[215478.972009425313445,205758.862216666137101],[215399.810185540351085,205773.285719526058529],[215409.064004396554083,205947.257514022639953],[215570.080452494468773,206057.377958411438158]]]]}},
{"type":"Feature","properties":{"id":3,"PROVINCE":"SIDI BENNOUR","CERCLE":"OULED AMRANE","COMMUNE":"TAMDA","DOUAR":"SADIK","ETAT":"ANNULE","SUP EN HA":32.35,"NB HABITAN":809,"CENTROID_X":217107.28,"CENTROID_Y":204418.11,"VALIDATION":"2025-07-10","OBSERVATIO":"TOUCHE PAR LA ZONE AGRICOLE REMEMBREE","PROVINCE_A":"سيدي بنور","CERCLE_AR":"أولاد عمران","COMMUNE_AR":"تامدة","DOUAR_AR":"صديق","REF":"N/A","LISTE ORMV":null,"VERSION":"V2"},"geometry":{"type":"MultiPolygon","coordinates":[[[[217075.976145583903417,204724.546536463894881],[217507.90249165109708,204523.011758875043597],[217578.344423516886309,204498.108045589178801],[217526.402392949181376,204330.897399241075618],[217509.3255609816988,204297.455269971484086],[217468.056550393666839,204308.128289951127954],[217434.614421124046203,204317.378240600170102],[217393.345410536014242,204167.955960884864908],[217300.634957698959624,204181.156763019418577],[217030.047982404386858,204210.371809195174137],[216973.825124841619981,204231.497609681129688],[216515.362863794376608,204370.926006751833484],[216668.754024924710393,204513.012135181867052],[216765.269036712736124,204489.932458449969999],[216850.244210134813329,204583.300241592718521],[216895.354487383563537,204535.042735698720207],[216931.023078696540324,204565.46594593624468],[217051.687050597596681,204660.967320478521287],[217075.976145583903417,204724.546536463894881]]]]}},
{"type":"Feature","properties":{"id":4,"PROVINCE":"SIDI BENNOUR","CERCLE":"OULED AMRANE","COMMUNE":"LAAGAGCHA","DOUAR":"OULED SAID","ETAT":"ACHEVEE","SUP EN HA":33.79,"NB HABITAN":845,"CENTROID_X":186863.91,"CENTROID_Y":223158.92,"VALIDATION":"2025-07-10","OBSERVATIO":"N/A","PROVINCE_A":"سيدي بنور","CERCLE_AR":"أولاد عمران","COMMUNE_AR":"العكاگشة","DOUAR_AR":"أولاد سعيد","REF":"DD/SDB/HGC/1/2025","LISTE ORMV":"OK","VERSION":"V2"},"geometry":{"type":"MultiPolygon","coordinates":[[[[186683.19409605031251,223363.749388097930932],[186685.564087372855283,223402.854244919726625],[186673.714130760170519,223441.959101741609629],[186651.394835529557895,223559.368198722688248],[186698.750679871824104,223586.597809219470946],[186773.336134710873011,223622.114692476170603],[186929.673193594091572,223424.184166822582483],[186908.343271691264817,223368.489370742987376],[187152.182889448857168,223256.290794932312565],[187293.066526367067127,223194.728197287360672],[187133.240551711962325,222949.661702816199977],[187112.162525429361267,222911.081045493483543],[187142.711720580409747,222882.179624628537567],[187086.092620881478069,222873.161184332886478],[186969.963046077202307,222860.126232058944879],[186823.0235840799578,222853.016258091345662],[186718.743965888366802,222845.906284123717342],[186671.344139437627746,222858.941236397688044],[186633.424278277059784,222889.751123590656789],[186600.244399761548266,222926.485989089967916],[186581.284469181264285,222962.035858927993104],[186571.804503891122295,222994.030741782247787],[186570.619508229836356,223027.210620297759306],[186580.09947352000745,223123.195268860465148],[186556.399560294637922,223180.075060601317091],[186551.659577649552375,223207.329960810486227],[186552.844573310838314,223238.139848003454972],[186589.579438810149441,223299.759622389421565],[186609.724365051690256,223322.274539953505155],[186648.829221873544157,223334.124496566189919],[186683.19409605031251,223363.749388097930932]]]]}}
]
}
